IRIDIUM 159             
1 43578U 18061K   25071.54794385  .00000008  00000+0 -43713-5 0  9994
2 43578  86.3922 249.5712 0002003  98.2932 261.8491 14.34217533347218
IRIDIUM 180             
1 43922U 19002A   25071.54744181 -.00000185  00000+0 -73140-4 0  9995
2 43922  86.4045 186.5118 0002153  96.2532 263.8909 14.34215618322826
IRIDIUM 176             
1 43923U 19002B   25071.59029625  .00000244  00000+0  34750-4 0  9998
2 43923  86.6167 186.4948 0002569 102.3992 257.7512 14.72229705331336
IRIDIUM 168             
1 43924U 19002C   25071.61086850 -.00000274  00000+0 -10483-3 0  9996
2 43924  86.4046 186.5496 0002098  98.8711 261.2723 14.34216386322811
IRIDIUM 173             
1 43925U 19002D   25071.59817641  .00000039  00000+0  69379-5 0  9991
2 43925  86.4041 186.4627 0002279  94.0340 266.1117 14.34214396322796
IRIDIUM 169             
1 43926U 19002E   25071.47176376  .00000767  00000+0  24435-3 0  9992
2 43926  86.4244 218.0886 0003429  74.3728 285.7849 14.38615344323848
IRIDIUM 172             
1 43927U 19002F   25071.59183749  .00000591  00000+0  20398-3 0  9997
2 43927  86.4036 186.4712 0002157  99.3937 260.7502 14.34215332322803
IRIDIUM 175             
1 43928U 19002G   25071.58508212  .00001735  00000+0  27110-3 0  9993
2 43928  86.1534 144.5430 0002283  67.1950 292.9507 14.72252007331325
